OBJECT_NAME,OBJECT_ID,EPOCH,MEAN_MOTION,ECCENTRICITY,INCLINATION,RA_OF_ASC_NODE,ARG_OF_PERICENTER,MEAN_ANOMALY,EPHEMERIS_TYPE,CLASSIFICATION_TYPE,NORAD_CAT_ID,ELEMENT_SET_NO,REV_AT_EPOCH,BSTAR,MEAN_MOTION_DOT,MEAN_MOTION_DDOT
TIANMU-1 20,2023-208B,2026-06-04T06:24:40.604832,15.32561485,.0007206,97.4439,272.1259,22.2144,337.9409,0,U,58661,999,13544,.30587888E-3,.9547E-4,0
TIANMU-1 21,2023-208C,2026-06-04T06:35:40.993728,15.34837110,.00070621,97.4498,274.7587,15.0321,345.1130,0,U,58662,999,13558,.32718362E-3,.10982E-3,0
TIANMU-1 22,2023-208D,2026-06-04T06:17:26.956320,15.30868836,.00044108,97.4493,271.4456,45.8636,314.2967,0,U,58663,999,13535,.30329925E-3,.8973E-4,0
TIANMU-1 15,2024-004A,2026-06-04T07:40:42.919680,15.26884073,.00079162,97.4669,341.5088,44.6728,315.5147,0,U,58700,999,13381,.25937504E-3,.6781E-4,0
TIANMU-1 16,2024-004B,2026-06-04T07:21:52.742880,15.26609758,.00069977,97.4615,340.7473,48.9828,311.2015,0,U,58701,999,13381,.2524024E-3,.654E-4,0
TIANMU-1 17,2024-004C,2026-06-04T07:00:55.469088,15.26609383,.00066454,97.4644,341.2129,54.1992,305.9863,0,U,58702,999,13380,.24584703E-3,.6368E-4,0
TIANMU-1 18,2024-004D,2026-06-04T06:30:03.756384,15.26868325,.00051675,97.4661,341.4388,53.2579,306.9134,0,U,58703,999,13380,.2504448E-3,.6538E-4,0
INSAT-3DS,2024-033A,2026-06-04T01:58:21.793152,1.00271078,.0001651,0.0157,244.9243,180.6260,298.6386,0,U,58990,999,4693,0,-.144E-5,0
METEOR-M2 4,2024-039A,2026-06-04T07:27:36.065376,14.22428175,.00065293,98.7005,114.7712,198.6083,161.4857,0,U,59051,999,11743,.30466026E-4,.24E-6,0
GOES 19,2024-119A,2026-06-04T04:14:38.556096,1.00271705,.00006751,0.0458,135.8547,354.6462,110.6014,0,U,60133,999,683,0,-.236E-5,0
MTG-S1,2025-143A,2026-06-04T04:59:22.642080,1.00271575,.0001211,0.6149,336.1165,38.2217,309.6895,0,U,64723,999,328,0,-.2E-6,0
METOP-SGA1,2025-172A,2026-06-04T02:48:33.624576,14.21507560,.00010003,98.6648,215.0827,84.9916,275.1375,0,U,65159,999,4193,.50485553E-4,.67E-6,0
FENGYUN 3H,2025-219A,2026-06-03T10:35:08.023776,14.19917857,.00016378,98.6765,95.4778,88.4136,271.7228,0,U,65815,999,3543,.58743444E-4,.81E-6,0
