TIANMU-1 20             
1 58661U 23208B   26155.26713663  .00009547  00000+0  30588-3 0  9995
2 58661  97.4439 272.1259 0007206  22.2144 337.9409 15.32561485135444
TIANMU-1 21             
1 58662U 23208C   26155.27478002  .00010982  00000+0  32718-3 0  9994
2 58662  97.4498 274.7587 0007062  15.0321 345.1130 15.34837110135589
TIANMU-1 22             
1 58663U 23208D   26155.26211755  .00008973  00000+0  30330-3 0  9999
2 58663  97.4493 271.4456 0004410  45.8636 314.2967 15.30868836135353
TIANMU-1 15             
1 58700U 24004A   26155.31994120  .00006781  00000+0  25938-3 0  9999
2 58700  97.4669 341.5088 0007916  44.6728 315.5147 15.26884073133812
TIANMU-1 16             
1 58701U 24004B   26155.30686045  .00006540  00000+0  25240-3 0  9992
2 58701  97.4615 340.7473 0006997  48.9828 311.2015 15.26609758133811
TIANMU-1 17             
1 58702U 24004C   26155.29230867  .00006368  00000+0  24585-3 0  9997
2 58702  97.4644 341.2129 0006645  54.1992 305.9863 15.26609383133803
TIANMU-1 18             
1 58703U 24004D   26155.27087681  .00006538  00000+0  25044-3 0  9990
2 58703  97.4661 341.4388 0005167  53.2579 306.9134 15.26868325133806
INSAT-3DS               
1 58990U 24033A   26155.08219668 -.00000144  00000+0  00000+0 0  9990
2 58990   0.0157 244.9243 0001651 180.6260 298.6386  1.00271078 46930
METEOR-M2 4             
1 59051U 24039A   26155.31083409  .00000024  00000+0  30466-4 0  9993
2 59051  98.7005 114.7712 0006529 198.6083 161.4857 14.22428175117435
GOES 19                 
1 60133U 24119A   26155.17683514 -.00000236  00000+0  00000+0 0  9994
2 60133   0.0458 135.8547 0000675 354.6462 110.6014  1.00271705  6836
MTG-S1                  
1 64723U 25143A   26155.20790095 -.00000020  00000+0  00000+0 0  9999
2 64723   0.6149 336.1165 0001211  38.2217 309.6895  1.00271575  3288
METOP-SGA1              
1 65159U 25172A   26155.11705584  .00000067  00000+0  50486-4 0  9992
2 65159  98.6648 215.0827 0001000  84.9916 275.1375 14.21507560 41930
FENGYUN 3H              
1 65815U 25219A   26154.44106509  .00000081  00000+0  58743-4 0  9990
2 65815  98.6765  95.4778 0001637  88.4136 271.7228 14.19917857 35431
